NORAD_CAT_ID,OBJECT_NAME,OBJECT_TYPE,EPOCH,MEAN_MOTION,ECCENTRICITY,INCLINATION,RA_OF_ASC_NODE,ARG_OF_PERICENTER,MEAN_ANOMALY,BSTAR,MEAN_MOTION_DOT,MEAN_MOTION_DDOT,TLE_LINE0,TLE_LINE1,TLE_LINE2,SEMIMAJOR_AXIS,PERIOD,APOGEE,PERIGEE,DECAYED
53627.0,STARLINK-4595,PAYLOAD,2023-10-14 00:57:08,15.08846384,0.0001335,53.2172,213.7636,91.5714,268.5431,0.0011478,0.0001803,0.0,0 STARLINK-4595,1 53627U 22104AR  23287.03968330  .00018030  00000-0  11478-2 0  9991,2 53627  53.2172 213.7636 0001335  91.5714 268.5431 15.08846384 62578,6917.861,95.437,540.649,538.802,0.0
53627.0,STARLINK-4595,PAYLOAD,2023-10-14 12:04:50,15.08852014,0.0001339,53.2169,211.6823,74.9445,285.1695,0.00096549,0.00015116,0.0,0 STARLINK-4595,1 53627U 22104AR  23287.50336290  .00015116  00000-0  96549-3 0  9992,2 53627  53.2169 211.6823 0001339  74.9445 285.1695 15.08852014 63338,6917.844,95.437,540.635,538.782,0.0
53627.0,STARLINK-4595,PAYLOAD,2023-10-15 03:58:43,15.08825223,0.000148,53.2166,208.7094,82.7216,277.3945,0.0019387,0.00030689,0.0,0 STARLINK-4595,1 53627U 22104AR  23288.16577732  .00030689  00000-0  19387-2 0  9999,2 53627  53.2166 208.7094 0001480  82.7216 277.3945 15.08825223 62749,6917.926,95.438,540.814,538.767,0.0
53627.0,STARLINK-4595,PAYLOAD,2023-10-16 03:49:30,15.0886685,0.00015,53.2163,204.2489,85.9381,274.1783,0.0016669,0.0002636,0.0,0 STARLINK-4595,1 53627U 22104AR  23289.15937504  .00026360  00000-0  16669-2 0  9997,2 53627  53.2163 204.2489 0001500  85.9381 274.1783 15.08866850 62898,6917.798,95.436,540.701,538.626,0.0
53627.0,STARLINK-4595,PAYLOAD,2023-10-16 11:46:25,15.08859619,0.000135,53.2172,202.762,94.7715,265.3431,0.00093336,0.00014606,0.0,0 STARLINK-4595,1 53627U 22104AR  23289.49057355  .00014606  00000-0  93336-3 0  9998,2 53627  53.2172 202.7620 0001350  94.7715 265.3431 15.08859619 62943,6917.82,95.436,540.619,538.752,0.0
53627.0,STARLINK-4595,PAYLOAD,2023-10-17 11:37:12,15.08847149,0.0002123,53.2167,198.3005,88.2573,271.8662,0.00039186,5.955e-05,0.0,0 STARLINK-4595,1 53627U 22104AR  23290.48417011  .00005955  00000-0  39186-3 0  9998,2 53627  53.2167 198.3005 0002123  88.2573 271.8662 15.08847149 63093,6917.859,95.437,541.192,538.255,0.0
53627.0,STARLINK-4595,PAYLOAD,2023-10-18 00:20:17,15.08852995,0.0001888,53.2164,195.9221,89.9241,270.1968,0.00098338,0.00015403,0.0,0 STARLINK-4595,1 53627U 22104AR  23291.01408914  .00015403  00000-0  98338-3 0  9993,2 53627  53.2164 195.9221 0001888  89.9241 270.1968 15.08852995 63861,6917.841,95.437,541.012,538.4,0.0
53627.0,STARLINK-4595,PAYLOAD,2023-10-19 04:57:13,15.08865193,0.0001465,53.2161,190.5686,87.0537,273.0623,0.0011421,0.00017948,0.0,0 STARLINK-4595,1 53627U 22104AR  23292.20640530  .00017948  00000-0  11421-2 0  9990,2 53627  53.2161 190.5686 0001465  87.0537 273.0623 15.08865193 63350,6917.803,95.436,540.682,538.655,0.0
53627.0,STARLINK-4595,PAYLOAD,2023-10-19 17:40:18,15.0884852,0.0001444,53.2165,188.1914,93.167,266.9487,0.00060953,9.428e-05,0.0,0 STARLINK-4595,1 53627U 22104AR  23292.73632568  .00009428  00000-0  60953-3 0  9999,2 53627  53.2165 188.1914 0001444  93.1670 266.9487 15.08848520 63437,6917.854,95.437,540.718,538.72,0.0
53627.0,STARLINK-4595,PAYLOAD,2023-10-19 22:26:27,15.08848902,0.0001498,53.2167,187.2992,90.6002,269.5162,0.00059562,9.206e-05,0.0,0 STARLINK-4595,1 53627U 22104AR  23292.93504523  .00009206  00000-0  59562-3 0  9998,2 53627  53.2167 187.2992 0001498  90.6002 269.5162 15.08848902 64158,6917.853,95.437,540.754,538.682,0.0
53627.0,STARLINK-4595,PAYLOAD,2023-10-20 20:41:52,15.0882262,0.0001626,53.2163,183.1352,105.593,254.5242,0.00021675,3.162e-05,0.0,0 STARLINK-4595,1 53627U 22104AR  23293.86241728  .00003162  00000-0  21675-3 0  9995,2 53627  53.2163 183.1352 0001626 105.5930 254.5242 15.08822620 63609,6917.934,95.439,540.923,538.674,0.0
53627.0,STARLINK-4595,PAYLOAD,2023-10-20 22:17:15,15.08824878,0.0001567,53.2163,182.838,100.2655,259.8514,-4.7738e-05,-1.047e-05,0.0,0 STARLINK-4595,1 53627U 22104AR  23293.92865715 -.00001047  00000-0 -47738-4 0  9991,2 53627  53.2163 182.8380 0001567 100.2655 259.8514 15.08824878 64301,6917.927,95.439,540.876,538.708,0.0
53627.0,STARLINK-4595,PAYLOAD,2023-10-21 09:24:57,15.08837968,0.0001536,53.2174,180.758,103.1994,256.9169,0.00025057,3.702e-05,0.0,0 STARLINK-4595,1 53627U 22104AR  23294.39233779  .00003702  00000-0  25057-3 0  9999,2 53627  53.2174 180.7580 0001536 103.1994 256.9169 15.08837968 63684,6917.887,95.438,540.814,538.689,0.0
53627.0,STARLINK-4595,PAYLOAD,2023-10-21 22:08:02,15.08861515,0.000156,53.216,178.3785,105.3346,254.7819,0.00096115,0.00015051,0.0,0 STARLINK-4595,1 53627U 22104AR  23294.92225309  .00015051  00000-0  96115-3 0  9991,2 53627  53.2160 178.3785 0001560 105.3346 254.7819 15.08861515 64450,6917.815,95.436,540.759,538.6,0.0
53627.0,STARLINK-4595,PAYLOAD,2023-10-21 23:43:25,15.08866049,0.0001544,53.2161,178.0812,105.2089,254.9074,0.001043,0.00016362,0.0,0 STARLINK-4595,1 53627U 22104AR  23294.98849150  .00016362  00000-0  10430-2 0  9994,2 53627  53.2161 178.0812 0001544 105.2089 254.9074 15.08866049 63770,6917.801,95.436,540.734,538.598,0.0
53627.0,STARLINK-4595,PAYLOAD,2023-10-22 09:15:44,15.08855496,0.000163,53.2164,176.2961,83.2019,276.9158,0.00020584,2.991e-05,0.0,0 STARLINK-4595,1 53627U 22104AR  23295.38593005  .00002991  00000-0  20584-3 0  9999,2 53627  53.2164 176.2961 0001630  83.2019 276.9158 15.08855496 63830,6917.833,95.437,540.826,538.57,0.0
53627.0,STARLINK-4595,PAYLOAD,2023-10-22 18:48:03,15.08828123,0.0001604,53.2157,174.5131,90.3861,269.7315,-0.00035189,-5.882e-05,0.0,0 STARLINK-4595,1 53627U 22104AR  23295.78337842 -.00005882  00000-0 -35189-3 0  9999,2 53627  53.2157 174.5131 0001604  90.3861 269.7315 15.08828123 63895,6917.917,95.438,540.891,538.672,0.0
53627.0,STARLINK-4595,PAYLOAD,2023-10-22 21:58:50,15.08829256,0.0001509,53.2156,173.9187,89.19,270.9265,-0.0001395,-2.507e-05,0.0,0 STARLINK-4595,1 53627U 22104AR  23295.91585757 -.00002507  00000-0 -13950-3 0  9997,2 53627  53.2156 173.9187 0001509  89.1900 270.9265 15.08829256 64608,6917.913,95.438,540.822,538.734,0.0
53627.0,STARLINK-4595,PAYLOAD,2023-10-22 23:34:13,15.08817338,0.00015,53.2155,173.6219,84.6406,275.4757,0.0011976,0.00018811,0.0,0 STARLINK-4595,1 53627U 22104AR  23295.98210169  .00018811  00000-0  11976-2 0  9994,2 53627  53.2155 173.6219 0001500  84.6406 275.4757 15.08817338 63920,6917.95,95.439,540.852,538.777,0.0
53627.0,STARLINK-4595,PAYLOAD,2023-10-23 21:49:37,15.08842821,0.0001758,53.2161,169.4573,102.0217,258.0972,0.0011656,0.00018313,0.0,0 STARLINK-4595,1 53627U 22104AR  23296.90946495  .00018313  00000-0  11656-2 0  9997,2 53627  53.2161 169.4573 0001758 102.0217 258.0972 15.08842821 64756,6917.872,95.437,540.953,538.521,0.0
53627.0,STARLINK-4595,PAYLOAD,2023-10-24 01:00:23,15.0885928,0.0001468,53.2167,168.8619,110.5009,249.6141,0.0014224,0.00022434,0.0,0 STARLINK-4595,1 53627U 22104AR  23297.04194112  .00022434  00000-0  14224-2 0  9997,2 53627  53.2167 168.8619 0001468 110.5009 249.6141 15.08859280 64084,6917.821,95.436,540.702,538.671,0.0
53627.0,STARLINK-4595,PAYLOAD,2023-10-24 08:57:19,15.08864784,0.0001439,53.2176,167.3759,97.5203,262.5952,0.0009594,0.00015024,0.0,0 STARLINK-4595,1 53627U 22104AR  23297.37313814  .00015024  00000-0  95940-3 0  9997,2 53627  53.2176 167.3759 0001439  97.5203 262.5952 15.08864784 64822,6917.805,95.436,540.665,538.674,0.0
53627.0,STARLINK-4595,PAYLOAD,2023-10-25 21:31:10,15.0883382,0.0001791,53.2178,160.5373,91.1868,268.9329,-9.1494e-05,-1.744e-05,0.0,0 STARLINK-4595,1 53627U 22104AR  23298.89665466 -.00001744  00000-0 -91494-4 0  9995,2 53627  53.2178 160.5373 0001791  91.1868 268.9329 15.08833820 64363,6917.899,95.438,541.003,538.525,0.0
53627.0,STARLINK-4595,PAYLOAD,2023-10-26 00:41:57,15.08837776,0.0001755,53.218,159.9422,88.5523,271.567,-5.8788e-05,-1.224e-05,0.0,0 STARLINK-4595,1 53627U 22104AR  23299.02913592 -.00001224  00000-0 -58788-4 0  9999,2 53627  53.2180 159.9422 0001755  88.5523 271.5670 15.08837776 65073,6917.887,95.438,540.966,538.538,0.0
53627.0,STARLINK-4595,PAYLOAD,2023-10-26 21:21:58,15.08854545,0.0001671,53.2171,156.077,86.8001,273.3182,0.00079665,0.00012418,0.0,0 STARLINK-4595,1 53627U 22104AR  23299.89025483  .00012418  00000-0  79665-3 0  9998,2 53627  53.2171 156.0770 0001671  86.8001 273.3182 15.08854545 65202,6917.836,95.437,540.857,538.545,0.0
53627.0,STARLINK-4595,PAYLOAD,2023-10-27 00:32:44,15.08859276,0.0001665,53.2169,155.4817,77.9991,282.1187,0.00084156,0.00013138,0.0,0 STARLINK-4595,1 53627U 22104AR  23300.02273328  .00013138  00000-0  84156-3 0  9990,2 53627  53.2169 155.4817 0001665  77.9991 282.1187 15.08859276 64530,6917.821,95.436,540.838,538.535,0.0
53627.0,STARLINK-4595,PAYLOAD,2023-10-27 14:51:12,15.0884801,0.0001618,53.2157,152.7978,104.1217,255.9955,0.00035755,5.408e-05,0.0,0 STARLINK-4595,1 53627U 22104AR  23300.61889462  .00005408  00000-0  35755-3 0  9999,2 53627  53.2157 152.7978 0001618 104.1217 255.9955 15.08848010 65319,6917.856,95.437,540.84,538.602,0.0
53627.0,STARLINK-4595,PAYLOAD,2023-10-27 21:12:44,15.08851466,0.0001607,53.216,151.6161,84.0568,276.0607,0.00038974,5.922e-05,0.0,0 STARLINK-4595,1 53627U 22104AR  23300.88385412  .00005922  00000-0  38974-3 0  9991,2 53627  53.2160 151.6161 0001607  84.0568 276.0607 15.08851466 64662,6917.845,95.437,540.822,538.599,0.0
53627.0,STARLINK-4595,PAYLOAD,2023-10-28 06:45:03,15.08838341,0.0001693,53.2155,149.8319,80.8893,279.2291,0.00028116,4.189e-05,0.0,0 STARLINK-4595,1 53627U 22104AR  23301.28129565  .00004189  00000-0  28116-3 0  9992,2 53627  53.2155 149.8319 0001693  80.8893 279.2291 15.08838341 64728,6917.885,95.438,540.922,538.579,0.0
53627.0,STARLINK-4595,PAYLOAD,2023-10-28 21:03:32,15.08834486,0.0001759,53.2162,147.1572,95.7116,264.4077,0.00021517,3.138e-05,0.0,0 STARLINK-4595,1 53627U 22104AR  23301.87746069  .00003138  00000-0  21517-3 0  9992,2 53627  53.2162 147.1572 0001759  95.7116 264.4077 15.08834486 65505,6917.897,95.438,540.979,538.545,0.0
